NORAD_CAT_ID,OBJECT_NAME,OBJECT_TYPE,EPOCH,MEAN_MOTION,ECCENTRICITY,INCLINATION,RA_OF_ASC_NODE,ARG_OF_PERICENTER,MEAN_ANOMALY,BSTAR,MEAN_MOTION_DOT,MEAN_MOTION_DDOT,TLE_LINE0,TLE_LINE1,TLE_LINE2,SEMIMAJOR_AXIS,PERIOD,APOGEE,PERIGEE,DECAYED
52584.0,STARLINK-3922,PAYLOAD,2024-05-06 16:08:12,15.08840822,0.0001319,53.2186,255.9229,81.4293,278.6849,0.0001495,2.092e-05,0.0,0 STARLINK-3922,1 52584U 22051BA  24127.67236567  .00002092  00000-0  14950-3 0  9997,2 52584  53.2186 255.9229 0001319  81.4293 278.6849 15.08840822110202,6917.878,95.438,540.655,538.83,0.0
52584.0,STARLINK-3922,PAYLOAD,2024-05-07 12:48:13,15.08840001,0.0001417,53.2187,252.0565,80.1757,279.9395,6.851e-07,-2.77e-06,0.0,0 STARLINK-3922,1 52584U 22051BA  24128.53348966 -.00000277  00000-0  68510-6 0  9998,2 52584  53.2187 252.0565 0001417  80.1757 279.9395 15.08840001110337,6917.88,95.438,540.726,538.765,0.0
52584.0,STARLINK-3922,PAYLOAD,2024-05-07 14:23:36,15.08842634,0.000118,53.2184,251.7585,89.5948,270.518,-6.0248e-05,-1.247e-05,0.0,0 STARLINK-3922,1 52584U 22051BA  24128.59972872 -.00001247  00000-0 -60248-4 0  9990,2 52584  53.2184 251.7585 0001180  89.5948 270.5180 15.08842634110270,6917.872,95.437,540.554,538.921,0.0
52584.0,STARLINK-3922,PAYLOAD,2024-05-07 15:58:59,15.08841825,0.0001115,53.2178,251.461,86.9332,273.1788,-6.9133e-05,-1.388e-05,0.0,0 STARLINK-3922,1 52584U 22051BA  24128.66596924 -.00001388  00000-0 -69133-4 0  9996,2 52584  53.2178 251.4610 0001115  86.9332 273.1788 15.08841825110358,6917.875,95.437,540.511,538.968,0.0
52584.0,STARLINK-3922,PAYLOAD,2024-05-08 12:39:00,15.08831124,9.16e-05,53.2179,247.5948,91.3442,268.7655,0.00019516,2.819e-05,0.0,0 STARLINK-3922,1 52584U 22051BA  24129.52708870  .00002819  00000-0  19516-3 0  9994,2 52584  53.2179 247.5948 0000916  91.3442 268.7655 15.08831124110487,6917.908,95.438,540.406,539.139,0.0
52584.0,STARLINK-3922,PAYLOAD,2024-05-08 14:14:23,15.08833717,9.3e-05,53.2178,247.2977,93.1411,266.9687,0.00020438,2.966e-05,0.0,0 STARLINK-3922,1 52584U 22051BA  24129.59332714  .00002966  00000-0  20438-3 0  9999,2 52584  53.2178 247.2977 0000930  93.1411 266.9687 15.08833717110426,6917.9,95.438,540.408,539.121,0.0
52584.0,STARLINK-3922,PAYLOAD,2024-05-08 15:49:46,15.08848916,0.0001143,53.2174,247.0017,82.2722,277.84,0.00012919,1.769e-05,0.0,0 STARLINK-3922,1 52584U 22051BA  24129.65956026  .00001769  00000-0  12919-3 0  9999,2 52584  53.2174 247.0017 0001143  82.2722 277.8400 15.08848916110506,6917.853,95.437,540.509,538.927,0.0
52584.0,STARLINK-3922,PAYLOAD,2024-05-09 01:22:03,15.08857744,0.0001062,53.2176,245.2182,96.2768,263.8345,0.000123,1.671e-05,0.0,0 STARLINK-3922,1 52584U 22051BA  24130.05699063  .00001671  00000-0  12300-3 0  9996,2 52584  53.2176 245.2182 0001062  96.2768 263.8345 15.08857744110564,6917.826,95.436,540.426,538.956,0.0
52584.0,STARLINK-3922,PAYLOAD,2024-05-09 12:29:47,15.08833272,0.0001245,53.2177,243.1354,94.3729,265.7406,5.9309e-05,6.56e-06,0.0,0 STARLINK-3922,1 52584U 22051BA  24130.52069161  .00000656  00000-0  59309-4 0  9991,2 52584  53.2177 243.1354 0001245  94.3729 265.7406 15.08833272110639,6917.901,95.438,540.627,538.905,0.0
52584.0,STARLINK-3922,PAYLOAD,2024-05-09 14:05:10,15.08833366,0.0001206,53.2182,242.8384,92.8757,267.2373,5.9931e-05,6.66e-06,0.0,0 STARLINK-3922,1 52584U 22051BA  24130.58693203  .00000666  00000-0  59931-4 0  9999,2 52584  53.2182 242.8384 0001206  92.8757 267.2373 15.08833366110572,6917.901,95.438,540.6,538.931,0.0
52584.0,STARLINK-3922,PAYLOAD,2024-05-10 13:55:57,15.08849375,0.0001072,53.2172,238.3765,91.0656,269.0459,6.3682e-05,7.26e-06,0.0,0 STARLINK-3922,1 52584U 22051BA  24131.58052483  .00000726  00000-0  63682-4 0  9994,2 52584  53.2172 238.3765 0001072  91.0656 269.0459 15.08849375110790,6917.852,95.437,540.458,538.975,0.0
52584.0,STARLINK-3922,PAYLOAD,2024-05-11 13:46:43,15.08830878,0.0001531,53.2182,233.9184,102.3366,257.7797,-0.00071989,-0.00011724,0.0,0 STARLINK-3922,1 52584U 22051BA  24132.57410988 -.00011724  00000-0 -71989-3 0  9992,2 52584  53.2182 233.9184 0001531 102.3366 257.7797 15.08830878110945,6917.908,95.438,540.832,538.714,0.0
52584.0,STARLINK-3922,PAYLOAD,2024-05-11 23:19:04,15.0876912,8.07e-05,53.2153,232.1358,87.0528,273.0557,-0.0018217,-0.00029106,0.0,0 STARLINK-3922,1 52584U 22051BA  24132.97157886 -.00029106  00000-0 -18217-2 0  9998,2 52584  53.2153 232.1358 0000807  87.0528 273.0557 15.08769120111005,6918.097,95.442,540.52,539.404,0.0
52584.0,STARLINK-3922,PAYLOAD,2024-05-12 13:37:33,15.08815326,0.0001313,53.2162,229.4595,100.5982,259.5158,-7.6107e-05,-1.498e-05,0.0,0 STARLINK-3922,1 52584U 22051BA  24133.56774697 -.00001498  00000-0 -76107-4 0  9997,2 52584  53.2162 229.4595 0001313 100.5982 259.5158 15.08815326111090,6917.956,95.439,540.729,538.912,0.0
52584.0,STARLINK-3922,PAYLOAD,2024-05-12 23:09:52,15.08821779,0.0001287,53.2171,227.6739,92.5452,267.5687,0.00040569,6.171e-05,0.0,0 STARLINK-3922,1 52584U 22051BA  24133.96519384  .00006171  00000-0  40569-3 0  9994,2 52584  53.2171 227.6739 0001287  92.5452 267.5687 15.08821779111154,6917.936,95.439,540.691,538.911,0.0
52584.0,STARLINK-3922,PAYLOAD,2024-05-13 11:52:58,15.08839612,0.0001076,53.2144,225.2931,77.6436,282.4677,0.0013437,0.00021161,0.0,0 STARLINK-3922,1 52584U 22051BA  24134.49512070  .00021161  00000-0  13437-2 0  9997,2 52584  53.2144 225.2931 0001076  77.6436 282.4677 15.08839612111233,6917.882,95.438,540.491,539.002,0.0
52584.0,STARLINK-3922,PAYLOAD,2024-05-13 16:39:07,15.08867816,0.0001214,53.2154,224.4036,92.7559,267.3572,0.0008948,0.00013992,0.0,0 STARLINK-3922,1 52584U 22051BA  24134.69383184  .00013992  00000-0  89480-3 0  9996,2 52584  53.2154 224.4036 0001214  92.7559 267.3572 15.08867816111265,6917.795,95.436,540.5,538.821,0.0
52584.0,STARLINK-3922,PAYLOAD,2024-05-14 05:22:12,15.08861052,0.0002334,53.214,222.0236,86.7852,273.3407,0.00035692,5.4e-05,0.0,0 STARLINK-3922,1 52584U 22051BA  24135.22375093  .00005400  00000-0  35692-3 0  9997,2 52584  53.2140 222.0236 0002334  86.7852 273.3407 15.08861052111348,6917.816,95.436,541.296,538.066,0.0
52584.0,STARLINK-3922,PAYLOAD,2024-05-14 11:43:44,15.08848442,0.000118,53.2149,220.8312,76.7454,283.3669,0.00018512,2.66e-05,0.0,0 STARLINK-3922,1 52584U 22051BA  24135.48871235  .00002660  00000-0  18512-3 0  9991,2 52584  53.2149 220.8312 0001180  76.7454 283.3669 15.08848442111386,6917.855,95.437,540.536,538.903,0.0
52584.0,STARLINK-3922,PAYLOAD,2024-05-15 05:12:59,15.0884531,0.0001162,53.2155,217.5598,101.6927,258.4196,0.0001336,1.839e-05,0.0,0 STARLINK-3922,1 52584U 22051BA  24136.21734974  .00001839  00000-0  13360-3 0  9994,2 52584  53.2155 217.5598 0001162 101.6927 258.4196 15.08845310111496,6917.864,95.437,540.533,538.925,0.0
52584.0,STARLINK-3922,PAYLOAD,2024-05-15 13:09:54,15.0887221,0.000154,53.2159,216.0774,84.8905,275.2263,0.0010517,0.00016504,0.0,0 STARLINK-3922,1 52584U 22051BA  24136.54854294  .00016504  00000-0  10517-2 0  9993,2 52584  53.2159 216.0774 0001540  84.8905 275.2263 15.08872210111545,6917.782,95.436,540.712,538.582,0.0
52584.0,STARLINK-3922,PAYLOAD,2024-05-15 14:45:17,15.08882346,0.0001506,53.2155,215.7795,86.406,273.7104,0.0015622,0.00024691,0.0,0 STARLINK-3922,1 52584U 22051BA  24136.61478104  .00024691  00000-0  15622-2 0  9991,2 52584  53.2155 215.7795 0001506  86.4060 273.7104 15.08882346111551,6917.751,95.435,540.658,538.574,0.0
52584.0,STARLINK-3922,PAYLOAD,2024-05-15 22:42:11,15.08887381,0.0001415,53.2158,214.2914,93.4163,266.6991,0.001208,0.00019015,0.0,0 STARLINK-3922,1 52584U 22051BA  24136.94597112  .00019015  00000-0  12080-2 0  9997,2 52584  53.2158 214.2914 0001415  93.4163 266.6991 15.08887381111539,6917.736,95.435,540.579,538.622,0.0
52584.0,STARLINK-3922,PAYLOAD,2024-05-16 11:25:17,15.08856599,0.0001519,53.2155,211.9137,99.5086,260.6078,0.0011594,0.0001822,0.0,0 STARLINK-3922,1 52584U 22051BA  24137.47589150  .00018220  00000-0  11594-2 0  9995,2 52584  53.2155 211.9137 0001519  99.5086 260.6078 15.08856599111686,6917.83,95.437,540.745,538.644,0.0
52584.0,STARLINK-3922,PAYLOAD,2024-05-16 14:36:03,15.08872082,0.0001598,53.2157,211.319,97.8829,262.2345,0.0025916,0.00041235,0.0,0 STARLINK-3922,1 52584U 22051BA  24137.60836885  .00041235  00000-0  25916-2 0  9995,2 52584  53.2157 211.3190 0001598  97.8829 262.2345 15.08872082111707,6917.782,95.436,540.753,538.542,0.0
52584.0,STARLINK-3922,PAYLOAD,2024-05-16 22:32:58,15.0886406,0.0001847,53.2161,209.8277,109.6988,250.4203,0.0011999,0.00018873,0.0,0 STARLINK-3922,1 52584U 22051BA  24137.93956576  .00018873  00000-0  11999-2 0  9999,2 52584  53.2161 209.8277 0001847 109.6988 250.4203 15.08864060111759,6917.807,95.436,540.95,538.394,0.0
52584.0,STARLINK-3922,PAYLOAD,2024-05-17 11:16:03,15.08851085,0.0001439,53.2165,207.4537,77.5407,282.5746,0.001386,0.00021846,0.0,0 STARLINK-3922,1 52584U 22051BA  24138.46948710  .00021846  00000-0  13860-2 0  9992,2 52584  53.2165 207.4537 0001439  77.5407 282.5746 15.08851085111832,6917.847,95.437,540.707,538.716,0.0
52584.0,STARLINK-3922,PAYLOAD,2024-05-18 04:45:18,15.0885229,0.0001487,53.2165,204.1772,78.402,281.7139,0.0016514,0.00026101,0.0,0 STARLINK-3922,1 52584U 22051BA  24139.19812825  .00026101  00000-0  16514-2 0  9998,2 52584  53.2165 204.1772 0001487  78.4020 281.7139 15.08852290111949,6917.843,95.437,540.737,538.679,0.0
52584.0,STARLINK-3922,PAYLOAD,2024-05-18 11:06:50,15.08846209,0.0001299,53.2165,202.9881,83.112,277.002,0.00078595,0.00012245,0.0,0 STARLINK-3922,1 52584U 22051BA  24139.46308680  .00012245  00000-0  78595-3 0  9999,2 52584  53.2165 202.9881 0001299  83.1120 277.0020 15.08846209111985,6917.861,95.437,540.625,538.828,0.0
52584.0,STARLINK-3922,PAYLOAD,2024-05-18 20:39:09,15.08864445,0.0001303,53.2173,201.2069,83.7494,276.3647,0.0013978,0.00022043,0.0,0 STARLINK-3922,1 52584U 22051BA  24139.86052237  .00022043  00000-0  13978-2 0  9997,2 52584  53.2173 201.2069 0001303  83.7494 276.3647 15.08864445112047,6917.806,95.436,540.572,538.769,0.0
